{
"type": "FeatureCollection",
"name": "buffers",
"crs": { "type": "name", "properties": { "name": "urn:ogc:def:crs:OGC:1.3:CRS84" } },
"features": [
{"type":"Feature","properties":{"fid":1,"Id":0,"Count_sum":257.0},"geometry":{"type":"MultiPolygon","coordinates":[[[[-0.134939508254641,51.513313640308702],[-0.13503770883701,51.512981741085341],[-0.13529547382976,51.512685020184627],[-0.135687569490637,51.512452521765553],[-0.136175615004884,51.512307003286047],[-0.136711839374898,51.512262708267535],[-0.137243756700681,51.512323972360896],[-0.137719302537274,51.512484799039967],[-0.138091929053945,51.512729446418952],[-0.138325160730967,51.513033967814977],[-0.138396164929237,51.513368555393548],[-0.138297987785521,51.513700457645399],[-0.138040236233326,51.513997185235539],[-0.137648138881069,51.51422969144992],[-0.137160077189558,51.514375215852937],[-0.136623828335561,51.514419512660687],[-0.136091887571125,51.51435824553883],[-0.135616328293978,51.51419741217029],[-0.135243703468686,51.513952756996055],[-0.135010487968928,51.51364822967647],[-0.134939508254641,51.513313640308702]]]]}},
{"type":"Feature","properties":{"fid":2,"Id":0,"Count_sum":70.0},"geometry":{"type":"MultiPolygon","coordinates":[[[[-0.137857777487961,51.51384855688778],[-0.137955958168791,51.513516655047844],[-0.138213707470359,51.513219927597966],[-0.138605793186002,51.512987419338295],[-0.139093835474099,51.512841888690012],[-0.139630063652627,51.51279758036555],[-0.140161991448796,51.512858831318162],[-0.140637553392976,51.51301964630786],[-0.141010200078089,51.513264284593014],[-0.141243454010549,51.513568800380959],[-0.141314480372955,51.513903386386239],[-0.14121632313248,51.514235291253776],[-0.140958587274119,51.514532025392683],[-0.140566499869695,51.514764541447846],[-0.14007844140588,51.514910078020442],[-0.139542188743274,51.514954388135159],[-0.139010237506751,51.514893134154931],[-0.13853466211936,51.514732312476198],[-0.13816201712303,51.514487666395567],[-0.137928779366289,51.514183144683294],[-0.137857777487961,51.51384855688778]]]]}},
{"type":"Feature","properties":{"fid":3,"Id":0,"Count_sum":null},"geometry":{"type":"MultiPolygon","coordinates":[[[[-0.137942592079688,51.51487813945139],[-0.138040774553254,51.514546237612052],[-0.138298529294042,51.514249510078322],[-0.138690623562838,51.514017001658459],[-0.139178676680781,51.513871470789319],[-0.139714916905874,51.513827162204919],[-0.140246856786329,51.513888412883965],[-0.140722429669826,51.514049227613214],[-0.141095085078591,51.514293865676592],[-0.141328344665104,51.514598381303173],[-0.14139937305838,51.514932967223316],[-0.141301214026591,51.51526487209032],[-0.141043472729879,51.515561606313334],[-0.140651376772283,51.515794122528973],[-0.140163307477726,51.51593965932264],[-0.139627042767122,51.515983969697395],[-0.139095079444891,51.515922715990676],[-0.138619493117315,51.515761894572172],[-0.138246839397351,51.515517248713039],[-0.138013595987453,51.515212727161895],[-0.137942592079688,51.51487813945139]]]]}},
{"type":"Feature","properties":{"fid":4,"Id":0,"Count_sum":null},"geometry":{"type":"MultiPolygon","coordinates":[[[[-0.129901530587221,51.512326472809136],[-0.12999976537526,51.511994578100087],[-0.130257557083078,51.511697868500455],[-0.130649669354027,51.511465387062913],[-0.131137719748072,51.51131988958322],[-0.131673936790313,51.511275617527339],[-0.132205835298009,51.511336904298652],[-0.13268135266782,51.51149775115136],[-0.133053943854879,51.511742414225033],[-0.133287136797134,51.512046945300447],[-0.133358102646739,51.512381535595388],[-0.133259891294332,51.512713433334476],[-0.133002113022433,51.513010149624272],[-0.132609999055628,51.513242638856696],[-0.132121932481712,51.513388142258592],[-0.131585690955742,51.513432416101928],[-0.131053769012414,51.513371126300576],[-0.130578238206684,51.513210272757689],[-0.13020564871548,51.512965601889142],[-0.129972471953098,51.512661064891489],[-0.129901530587221,51.512326472809136]]]]}},
{"type":"Feature","properties":{"fid":5,"Id":0,"Count_sum":33.0},"geometry":{"type":"MultiPolygon","coordinates":[[[[-0.131866091545984,51.512111357406532],[-0.131964311591953,51.511779460891447],[-0.132222089393672,51.511482746821642],[-0.132614189955528,51.511250258687348],[-0.133102231983399,51.5111047529399],[-0.133638444821101,51.511060471854506],[-0.134170343697356,51.511121749718342],[-0.134645865972797,51.511282588657437],[-0.135018466122553,51.511527245585903],[-0.135251671207495,51.511831772886062],[-0.135322651191391,51.512166362145329],[-0.13522445458142,51.512498261689807],[-0.134966690216959,51.512794982449385],[-0.134574587961049,51.513027478378525],[-0.134086529754879,51.513172990048581],[-0.133550292434196,51.513217272922077],[-0.133018370121944,51.513155992028842],[-0.132542834409242,51.512995146400002],[-0.132170235953542,51.512750481676683],[-0.131937047046898,51.512445948453916],[-0.131866091545984,51.512111357406532]]]]}},
{"type":"Feature","properties":{"fid":6,"Id":0,"Count_sum":34.0},"geometry":{"type":"MultiPolygon","coordinates":[[[[-0.134190848017967,51.511514831373354],[-0.134289049819244,51.511182932695746],[-0.134546809177013,51.510886213300672],[-0.134938892900895,51.510653717199737],[-0.13542692134468,51.510508201624091],[-0.135963125181577,51.510463909810959],[-0.136495020521177,51.51052517709752],[-0.136970545070303,51.510686006645031],[-0.137343153081705,51.510930656286867],[-0.137576370847008,51.511235179118636],[-0.137647367089049,51.511569767165099],[-0.13754918872374,51.511901668871275],[-0.137291442804548,51.512198394955526],[-0.136899357388774,51.512430898851207],[-0.136411312768872,51.512576420349831],[-0.135875084450358,51.512620713951797],[-0.13534316567479,51.512559443636682],[-0.134867627687087,51.512398607400002],[-0.134495021367578,51.512153949963405],[-0.134261819778392,51.511849421208694],[-0.134190848017967,51.511514831373354]]]]}},
{"type":"Feature","properties":{"fid":7,"Id":0,"Count_sum":null},"geometry":{"type":"MultiPolygon","coordinates":[[[[-0.132233496007065,51.509991832563983],[-0.132331708431762,51.509659935553891],[-0.132589471543994,51.509363220429485],[-0.132981551786253,51.509130730784307],[-0.133469569853365,51.508985223217657],[-0.134005757434275,51.508940940182853],[-0.134537632229582,51.509002216157953],[-0.135013133956738,51.509163053453754],[-0.135385719102088,51.509407709145222],[-0.135618916195313,51.509712235735634],[-0.135689895982782,51.510046824881812],[-0.135591706991338,51.510378724920955],[-0.135333957314994,51.510675446734545],[-0.134941875379208,51.510907944174008],[-0.134453841136022,51.511053457662854],[-0.133917629075202,51.511097742485731],[-0.133385730846643,51.511036463481574],[-0.132910215683597,51.510875619496581],[-0.132537632231775,51.510630956010864],[-0.132304451314624,51.510326423498206],[-0.132233496007065,51.509991832563983]]]]}},
{"type":"Feature","properties":{"fid":8,"Id":0,"Count_sum":3.0},"geometry":{"type":"MultiPolygon","coordinates":[[[[-0.136470475494709,51.511267772638362],[-0.136568660196136,51.510935871866337],[-0.136826403432441,51.510639147285403],[-0.137218473591105,51.51040664341491],[-0.137706492353479,51.510261118246547],[-0.138242691340199,51.510216815956419],[-0.138774587135502,51.510278072907219],[-0.139250117401662,51.510438893271832],[-0.139622735832029,51.51068353578242],[-0.139855967698644,51.510988054232655],[-0.139926980344268,51.511322641076262],[-0.139828819079238,51.511654544876095],[-0.139571089283067,51.511951276145695],[-0.1391790174346,51.512183787810905],[-0.138690982497931,51.512329318902722],[-0.138154759030458,51.512373622982444],[-0.13762283979876,51.512312363003836],[-0.137147296092465,51.512151535950537],[-0.136774679351902,51.511906885645224],[-0.136541463659581,51.511602361271571],[-0.136470475494709,51.511267772638362]]]]}}
]
}
