{
"type": "FeatureCollection",
"name": "deaths",
"crs": { "type": "name", "properties": { "name": "urn:ogc:def:crs:OGC:1.3:CRS84" } },
"features": [
{"type":"Feature","properties":{"Id":0,"Count":3},"geometry":{"type":"Point","coordinates":[-0.137930062516868,51.513417705869394]}},
{"type":"Feature","properties":{"Id":0,"Count":2},"geometry":{"type":"Point","coordinates":[-0.137883038556495,51.513361393286345]}},
{"type":"Feature","properties":{"Id":0,"Count":1},"geometry":{"type":"Point","coordinates":[-0.137852868841468,51.513317042425875]}},
{"type":"Feature","properties":{"Id":0,"Count":1},"geometry":{"type":"Point","coordinates":[-0.137811912453251,51.513262123112639]}},
{"type":"Feature","properties":{"Id":0,"Count":4},"geometry":{"type":"Point","coordinates":[-0.137766784765802,51.513203970169656]}},
{"type":"Feature","properties":{"Id":0,"Count":2},"geometry":{"type":"Point","coordinates":[-0.137536899921111,51.513183545500311]}},
{"type":"Feature","properties":{"Id":0,"Count":2},"geometry":{"type":"Point","coordinates":[-0.138200436736304,51.513359180221677]}},
{"type":"Feature","properties":{"Id":0,"Count":2},"geometry":{"type":"Point","coordinates":[-0.138044959687548,51.513328028955229]}},
{"type":"Feature","properties":{"Id":0,"Count":3},"geometry":{"type":"Point","coordinates":[-0.138276108522369,51.513322951312027]}},
{"type":"Feature","properties":{"Id":0,"Count":2},"geometry":{"type":"Point","coordinates":[-0.13822344494243,51.513426666349524]}},
{"type":"Feature","properties":{"Id":0,"Count":2},"geometry":{"type":"Point","coordinates":[-0.138336995258361,51.513381182687986]}},
{"type":"Feature","properties":{"Id":0,"Count":1},"geometry":{"type":"Point","coordinates":[-0.13856267118074,51.513462335900385]}},
{"type":"Feature","properties":{"Id":0,"Count":3},"geometry":{"type":"Point","coordinates":[-0.138425554076643,51.513215921970996]}},
{"type":"Feature","properties":{"Id":0,"Count":1},"geometry":{"type":"Point","coordinates":[-0.138378403710682,51.513169442045083]}},
{"type":"Feature","properties":{"Id":0,"Count":4},"geometry":{"type":"Point","coordinates":[-0.138337109794586,51.513116468363691]}},
{"type":"Feature","properties":{"Id":0,"Count":1},"geometry":{"type":"Point","coordinates":[-0.138645411881611,51.513239605076713]}},
{"type":"Feature","properties":{"Id":0,"Count":1},"geometry":{"type":"Point","coordinates":[-0.138697865094891,51.51316441449611]}},
{"type":"Feature","properties":{"Id":0,"Count":1},"geometry":{"type":"Point","coordinates":[-0.13792423943729,51.513178177568676]}},
{"type":"Feature","properties":{"Id":0,"Count":4},"geometry":{"type":"Point","coordinates":[-0.137864870024444,51.513111191413451]}},
{"type":"Feature","properties":{"Id":0,"Count":3},"geometry":{"type":"Point","coordinates":[-0.137811442062517,51.513055430995223]}},
{"type":"Feature","properties":{"Id":0,"Count":2},"geometry":{"type":"Point","coordinates":[-0.138761881950736,51.513441326163132]}},
{"type":"Feature","properties":{"Id":0,"Count":1},"geometry":{"type":"Point","coordinates":[-0.138798799971965,51.513592414257133]}},
{"type":"Feature","properties":{"Id":0,"Count":2},"geometry":{"type":"Point","coordinates":[-0.139044644146919,51.51340233176154]}},
{"type":"Feature","properties":{"Id":0,"Count":2},"geometry":{"type":"Point","coordinates":[-0.138969727757185,51.513379566309546]}},
{"type":"Feature","properties":{"Id":0,"Count":2},"geometry":{"type":"Point","coordinates":[-0.138863382208082,51.513410774964129]}},
{"type":"Feature","properties":{"Id":0,"Count":1},"geometry":{"type":"Point","coordinates":[-0.138752454492565,51.513641446152434]}},
{"type":"Feature","properties":{"Id":0,"Count":1},"geometry":{"type":"Point","coordinates":[-0.138808117206398,51.513693420402923]}},
{"type":"Feature","properties":{"Id":0,"Count":3},"geometry":{"type":"Point","coordinates":[-0.138855985083431,51.513744868998735]}},
{"type":"Feature","properties":{"Id":0,"Count":1},"geometry":{"type":"Point","coordinates":[-0.138886823891262,51.51367609357731]}},
{"type":"Feature","properties":{"Id":0,"Count":1},"geometry":{"type":"Point","coordinates":[-0.139239317363135,51.513589643672454]}},
{"type":"Feature","properties":{"Id":0,"Count":1},"geometry":{"type":"Point","coordinates":[-0.139321231920397,51.513663069728196]}},
{"type":"Feature","properties":{"Id":0,"Count":1},"geometry":{"type":"Point","coordinates":[-0.139315954531547,51.513502306178061]}},
{"type":"Feature","properties":{"Id":0,"Count":2},"geometry":{"type":"Point","coordinates":[-0.13961591630383,51.513582561664229]}},
{"type":"Feature","properties":{"Id":0,"Count":2},"geometry":{"type":"Point","coordinates":[-0.139719269517316,51.513541309599944]}},
{"type":"Feature","properties":{"Id":0,"Count":1},"geometry":{"type":"Point","coordinates":[-0.140073770024927,51.513297537201971]}},
{"type":"Feature","properties":{"Id":0,"Count":1},"geometry":{"type":"Point","coordinates":[-0.139093976742262,51.51329051901714]}},
{"type":"Feature","properties":{"Id":0,"Count":1},"geometry":{"type":"Point","coordinates":[-0.139697151509884,51.513013326883168]}},
{"type":"Feature","properties":{"Id":0,"Count":1},"geometry":{"type":"Point","coordinates":[-0.139327042200405,51.512964753136664]}},
{"type":"Feature","properties":{"Id":0,"Count":2},"geometry":{"type":"Point","coordinates":[-0.139317346560676,51.512893244440995]}},
{"type":"Feature","properties":{"Id":0,"Count":8},"geometry":{"type":"Point","coordinates":[-0.139186777885725,51.512964152058622]}},
{"type":"Feature","properties":{"Id":0,"Count":2},"geometry":{"type":"Point","coordinates":[-0.139035899541791,51.513024833166142]}},
{"type":"Feature","properties":{"Id":0,"Count":1},"geometry":{"type":"Point","coordinates":[-0.139209070842957,51.513026669243182]}},
{"type":"Feature","properties":{"Id":0,"Count":1},"geometry":{"type":"Point","coordinates":[-0.138426968227262,51.512830955585947]}},
{"type":"Feature","properties":{"Id":0,"Count":1},"geometry":{"type":"Point","coordinates":[-0.138624048329968,51.51288455445097]}},
{"type":"Feature","properties":{"Id":0,"Count":1},"geometry":{"type":"Point","coordinates":[-0.138095697238992,51.512526455018275]}},
{"type":"Feature","properties":{"Id":0,"Count":1},"geometry":{"type":"Point","coordinates":[-0.138034525040702,51.512465225700581]}},
{"type":"Feature","properties":{"Id":0,"Count":4},"geometry":{"type":"Point","coordinates":[-0.137983516917512,51.512428195176291]}},
{"type":"Feature","properties":{"Id":0,"Count":1},"geometry":{"type":"Point","coordinates":[-0.1380648201826,51.512414643684608]}},
{"type":"Feature","properties":{"Id":0,"Count":1},"geometry":{"type":"Point","coordinates":[-0.138193731108201,51.512509553005152]}},
{"type":"Feature","properties":{"Id":0,"Count":1},"geometry":{"type":"Point","coordinates":[-0.13781763909244,51.512377962970596]}},
{"type":"Feature","properties":{"Id":0,"Count":1},"geometry":{"type":"Point","coordinates":[-0.137655835172851,51.512446877716606]}},
{"type":"Feature","properties":{"Id":0,"Count":4},"geometry":{"type":"Point","coordinates":[-0.13758421009953,51.512491083801216]}},
{"type":"Feature","properties":{"Id":0,"Count":1},"geometry":{"type":"Point","coordinates":[-0.137650266789236,51.512373517218933]}},
{"type":"Feature","properties":{"Id":0,"Count":1},"geometry":{"type":"Point","coordinates":[-0.137449643911376,51.51233945927077]}},
{"type":"Feature","properties":{"Id":0,"Count":1},"geometry":{"type":"Point","coordinates":[-0.137375918854288,51.512364136963001]}},
{"type":"Feature","properties":{"Id":0,"Count":1},"geometry":{"type":"Point","coordinates":[-0.137327141569464,51.512318652685437]}},
{"type":"Feature","properties":{"Id":0,"Count":1},"geometry":{"type":"Point","coordinates":[-0.136979853591122,51.512540412672465]}},
{"type":"Feature","properties":{"Id":0,"Count":2},"geometry":{"type":"Point","coordinates":[-0.137180429620688,51.512648593620455]}},
{"type":"Feature","properties":{"Id":0,"Count":1},"geometry":{"type":"Point","coordinates":[-0.137052215213775,51.512692403736708]}},
{"type":"Feature","properties":{"Id":0,"Count":1},"geometry":{"type":"Point","coordinates":[-0.137695242488196,51.512956542721355]}},
{"type":"Feature","properties":{"Id":0,"Count":1},"geometry":{"type":"Point","coordinates":[-0.137532926913325,51.512764672071157]}},
{"type":"Feature","properties":{"Id":0,"Count":2},"geometry":{"type":"Point","coordinates":[-0.137418986407587,51.512780128727677]}},
{"type":"Feature","properties":{"Id":0,"Count":1},"geometry":{"type":"Point","coordinates":[-0.137367644105141,51.512726175629901]}},
{"type":"Feature","properties":{"Id":0,"Count":1},"geometry":{"type":"Point","coordinates":[-0.137324858943014,51.512681214701715]}},
{"type":"Feature","properties":{"Id":0,"Count":2},"geometry":{"type":"Point","coordinates":[-0.137530679297059,51.512913887543696]}},
{"type":"Feature","properties":{"Id":0,"Count":2},"geometry":{"type":"Point","coordinates":[-0.137561667879897,51.513046410757511]}},
{"type":"Feature","properties":{"Id":0,"Count":1},"geometry":{"type":"Point","coordinates":[-0.137465921603165,51.513073613379007]}},
{"type":"Feature","properties":{"Id":0,"Count":2},"geometry":{"type":"Point","coordinates":[-0.137386027650991,51.513087158763405]}},
{"type":"Feature","properties":{"Id":0,"Count":3},"geometry":{"type":"Point","coordinates":[-0.137305863910066,51.513121723515425]}},
{"type":"Feature","properties":{"Id":0,"Count":1},"geometry":{"type":"Point","coordinates":[-0.137088880290417,51.513187031524758]}},
{"type":"Feature","properties":{"Id":0,"Count":4},"geometry":{"type":"Point","coordinates":[-0.136996466159705,51.513214458519855]}},
{"type":"Feature","properties":{"Id":0,"Count":15},"geometry":{"type":"Point","coordinates":[-0.136858925562644,51.513249360479044]}},
{"type":"Feature","properties":{"Id":0,"Count":3},"geometry":{"type":"Point","coordinates":[-0.136777590080393,51.513271223274309]}},
{"type":"Feature","properties":{"Id":0,"Count":4},"geometry":{"type":"Point","coordinates":[-0.136705171796666,51.513299998780241]}},
{"type":"Feature","properties":{"Id":0,"Count":5},"geometry":{"type":"Point","coordinates":[-0.136493500005924,51.513159495253795]}},
{"type":"Feature","properties":{"Id":0,"Count":2},"geometry":{"type":"Point","coordinates":[-0.136329567820217,51.513015900297979]}},
{"type":"Feature","properties":{"Id":0,"Count":1},"geometry":{"type":"Point","coordinates":[-0.136423512884086,51.512921256695364]}},
{"type":"Feature","properties":{"Id":0,"Count":2},"geometry":{"type":"Point","coordinates":[-0.136523312581659,51.512890120821083]}},
{"type":"Feature","properties":{"Id":0,"Count":1},"geometry":{"type":"Point","coordinates":[-0.136599423223285,51.512859490741199]}},
{"type":"Feature","properties":{"Id":0,"Count":1},"geometry":{"type":"Point","coordinates":[-0.136698862408241,51.512830434167178]}},
{"type":"Feature","properties":{"Id":0,"Count":1},"geometry":{"type":"Point","coordinates":[-0.136818567400955,51.512781706833337]}},
{"type":"Feature","properties":{"Id":0,"Count":1},"geometry":{"type":"Point","coordinates":[-0.136972679490243,51.51272898883991]}},
{"type":"Feature","properties":{"Id":0,"Count":1},"geometry":{"type":"Point","coordinates":[-0.136358480734612,51.512868483447683]}},
{"type":"Feature","properties":{"Id":0,"Count":1},"geometry":{"type":"Point","coordinates":[-0.136629866421226,51.512722695885465]}},
{"type":"Feature","properties":{"Id":0,"Count":1},"geometry":{"type":"Point","coordinates":[-0.136584379698206,51.5126544110501]}},
{"type":"Feature","properties":{"Id":0,"Count":1},"geometry":{"type":"Point","coordinates":[-0.13642252133549,51.512712917300021]}},
{"type":"Feature","properties":{"Id":0,"Count":1},"geometry":{"type":"Point","coordinates":[-0.136345059479243,51.512615126583448]}},
{"type":"Feature","properties":{"Id":0,"Count":1},"geometry":{"type":"Point","coordinates":[-0.136437382169586,51.51249092088333]}},
{"type":"Feature","properties":{"Id":0,"Count":1},"geometry":{"type":"Point","coordinates":[-0.136377214444993,51.512448994573582]}},
{"type":"Feature","properties":{"Id":0,"Count":1},"geometry":{"type":"Point","coordinates":[-0.13619684420576,51.512464666656534]}},
{"type":"Feature","properties":{"Id":0,"Count":1},"geometry":{"type":"Point","coordinates":[-0.136141523443039,51.512413136044472]}},
{"type":"Feature","properties":{"Id":0,"Count":2},"geometry":{"type":"Point","coordinates":[-0.136101650362739,51.512358021764754]}},
{"type":"Feature","properties":{"Id":0,"Count":1},"geometry":{"type":"Point","coordinates":[-0.136030156264047,51.51227147830852]}},
{"type":"Feature","properties":{"Id":0,"Count":1},"geometry":{"type":"Point","coordinates":[-0.136309730202703,51.512355097171231]}},
{"type":"Feature","properties":{"Id":0,"Count":4},"geometry":{"type":"Point","coordinates":[-0.135940377317569,51.511990963962951]}},
{"type":"Feature","properties":{"Id":0,"Count":2},"geometry":{"type":"Point","coordinates":[-0.135857792381167,51.512082532490808]}},
{"type":"Feature","properties":{"Id":0,"Count":1},"geometry":{"type":"Point","coordinates":[-0.135800029898829,51.51203083697942]}},
{"type":"Feature","properties":{"Id":0,"Count":4},"geometry":{"type":"Point","coordinates":[-0.135716719988867,51.511969708495002]}},
{"type":"Feature","properties":{"Id":0,"Count":4},"geometry":{"type":"Point","coordinates":[-0.135119158161977,51.511881596081757]}},
{"type":"Feature","properties":{"Id":0,"Count":1},"geometry":{"type":"Point","coordinates":[-0.13514437187889,51.512049822305585]}},
{"type":"Feature","properties":{"Id":0,"Count":4},"geometry":{"type":"Point","coordinates":[-0.135393837830499,51.512250138456501]}},
{"type":"Feature","properties":{"Id":0,"Count":1},"geometry":{"type":"Point","coordinates":[-0.135409154831028,51.512161741624865]}},
{"type":"Feature","properties":{"Id":0,"Count":1},"geometry":{"type":"Point","coordinates":[-0.13547206618057,51.512212242797091]}},
{"type":"Feature","properties":{"Id":0,"Count":2},"geometry":{"type":"Point","coordinates":[-0.135765432983014,51.512572793467406]}},
{"type":"Feature","properties":{"Id":0,"Count":1},"geometry":{"type":"Point","coordinates":[-0.135871255759463,51.512575306524681]}},
{"type":"Feature","properties":{"Id":0,"Count":2},"geometry":{"type":"Point","coordinates":[-0.135975625674941,51.512671777319227]}},
{"type":"Feature","properties":{"Id":0,"Count":3},"geometry":{"type":"Point","coordinates":[-0.136032860964593,51.512726520956811]}},
{"type":"Feature","properties":{"Id":0,"Count":1},"geometry":{"type":"Point","coordinates":[-0.136115116334176,51.512793745633971]}},
{"type":"Feature","properties":{"Id":0,"Count":4},"geometry":{"type":"Point","coordinates":[-0.136180207833462,51.512845935348018]}},
{"type":"Feature","properties":{"Id":0,"Count":1},"geometry":{"type":"Point","coordinates":[-0.136082966300836,51.512879465133103]}},
{"type":"Feature","properties":{"Id":0,"Count":1},"geometry":{"type":"Point","coordinates":[-0.136139409755494,51.512938780991767]}},
{"type":"Feature","properties":{"Id":0,"Count":7},"geometry":{"type":"Point","coordinates":[-0.135328671328415,51.512765255746359]}},
{"type":"Feature","properties":{"Id":0,"Count":3},"geometry":{"type":"Point","coordinates":[-0.135122053394763,51.512843942798739]}},
{"type":"Feature","properties":{"Id":0,"Count":8},"geometry":{"type":"Point","coordinates":[-0.134644665837118,51.512532002715311]}},
{"type":"Feature","properties":{"Id":0,"Count":1},"geometry":{"type":"Point","coordinates":[-0.134521502563546,51.512197647680317]}},
{"type":"Feature","properties":{"Id":0,"Count":1},"geometry":{"type":"Point","coordinates":[-0.13496685089274,51.512214727211997]}},
{"type":"Feature","properties":{"Id":0,"Count":5},"geometry":{"type":"Point","coordinates":[-0.135098092125846,51.513153551106114]}},
{"type":"Feature","properties":{"Id":0,"Count":8},"geometry":{"type":"Point","coordinates":[-0.134393534010057,51.513055997295453]}},
{"type":"Feature","properties":{"Id":0,"Count":2},"geometry":{"type":"Point","coordinates":[-0.134505206069689,51.513165421067491]}},
{"type":"Feature","properties":{"Id":0,"Count":1},"geometry":{"type":"Point","coordinates":[-0.134436759305577,51.513097816892326]}},
{"type":"Feature","properties":{"Id":0,"Count":1},"geometry":{"type":"Point","coordinates":[-0.134593561137141,51.513238073467804]}},
{"type":"Feature","properties":{"Id":0,"Count":2},"geometry":{"type":"Point","coordinates":[-0.134640434830765,51.51329310684379]}},
{"type":"Feature","properties":{"Id":0,"Count":1},"geometry":{"type":"Point","coordinates":[-0.134708643569606,51.513379220120619]}},
{"type":"Feature","properties":{"Id":0,"Count":2},"geometry":{"type":"Point","coordinates":[-0.134756152192333,51.513430591222487]}},
{"type":"Feature","properties":{"Id":0,"Count":2},"geometry":{"type":"Point","coordinates":[-0.135244342948288,51.513474642749451]}},
{"type":"Feature","properties":{"Id":0,"Count":3},"geometry":{"type":"Point","coordinates":[-0.134897256145184,51.513421585884288]}},
{"type":"Feature","properties":{"Id":0,"Count":1},"geometry":{"type":"Point","coordinates":[-0.135157886700703,51.513528090960435]}},
{"type":"Feature","properties":{"Id":0,"Count":2},"geometry":{"type":"Point","coordinates":[-0.135344122827614,51.513481374257701]}},
{"type":"Feature","properties":{"Id":0,"Count":2},"geometry":{"type":"Point","coordinates":[-0.135063339609602,51.513593960963782]}},
{"type":"Feature","properties":{"Id":0,"Count":3},"geometry":{"type":"Point","coordinates":[-0.135800909025701,51.513226900218086]}},
{"type":"Feature","properties":{"Id":0,"Count":1},"geometry":{"type":"Point","coordinates":[-0.135761568849939,51.513179785669728]}},
{"type":"Feature","properties":{"Id":0,"Count":2},"geometry":{"type":"Point","coordinates":[-0.135740154137366,51.513132027829215]}},
{"type":"Feature","properties":{"Id":0,"Count":1},"geometry":{"type":"Point","coordinates":[-0.135644897024836,51.513047795560347]}},
{"type":"Feature","properties":{"Id":0,"Count":1},"geometry":{"type":"Point","coordinates":[-0.135601670609356,51.51300597636714]}},
{"type":"Feature","properties":{"Id":0,"Count":1},"geometry":{"type":"Point","coordinates":[-0.135501338480465,51.512882498502293]}},
{"type":"Feature","properties":{"Id":0,"Count":1},"geometry":{"type":"Point","coordinates":[-0.135832079767276,51.513269758593012]}},
{"type":"Feature","properties":{"Id":0,"Count":3},"geometry":{"type":"Point","coordinates":[-0.1360487701935,51.513458513753314]}},
{"type":"Feature","properties":{"Id":0,"Count":3},"geometry":{"type":"Point","coordinates":[-0.136139587613057,51.513431294487468]}},
{"type":"Feature","properties":{"Id":0,"Count":3},"geometry":{"type":"Point","coordinates":[-0.13622778749438,51.51340204605787]}},
{"type":"Feature","properties":{"Id":0,"Count":3},"geometry":{"type":"Point","coordinates":[-0.134999280257791,51.512592978492108]}},
{"type":"Feature","properties":{"Id":0,"Count":1},"geometry":{"type":"Point","coordinates":[-0.134792903351678,51.512584612338351]}},
{"type":"Feature","properties":{"Id":0,"Count":2},"geometry":{"type":"Point","coordinates":[-0.134896092799808,51.512554523740974]}},
{"type":"Feature","properties":{"Id":0,"Count":1},"geometry":{"type":"Point","coordinates":[-0.134999916735449,51.51252077280401]}},
{"type":"Feature","properties":{"Id":0,"Count":1},"geometry":{"type":"Point","coordinates":[-0.133482827684404,51.513137191688138]}},
{"type":"Feature","properties":{"Id":0,"Count":1},"geometry":{"type":"Point","coordinates":[-0.133265179421733,51.513228098946733]}},
{"type":"Feature","properties":{"Id":0,"Count":2},"geometry":{"type":"Point","coordinates":[-0.133296117603925,51.513152380394878]}},
{"type":"Feature","properties":{"Id":0,"Count":1},"geometry":{"type":"Point","coordinates":[-0.132933478540891,51.513257585719934]}},
{"type":"Feature","properties":{"Id":0,"Count":1},"geometry":{"type":"Point","coordinates":[-0.133998019591907,51.513544108164261]}},
{"type":"Feature","properties":{"Id":0,"Count":1},"geometry":{"type":"Point","coordinates":[-0.13404186860326,51.513626108149566]}},
{"type":"Feature","properties":{"Id":0,"Count":2},"geometry":{"type":"Point","coordinates":[-0.134156083936828,51.513637108088616]}},
{"type":"Feature","properties":{"Id":0,"Count":2},"geometry":{"type":"Point","coordinates":[-0.13409122619745,51.513524050128431]}},
{"type":"Feature","properties":{"Id":0,"Count":1},"geometry":{"type":"Point","coordinates":[-0.134272265560063,51.513819496693692]}},
{"type":"Feature","properties":{"Id":0,"Count":1},"geometry":{"type":"Point","coordinates":[-0.134220238179037,51.513723771444496]}},
{"type":"Feature","properties":{"Id":0,"Count":1},"geometry":{"type":"Point","coordinates":[-0.134704035956088,51.513703719428833]}},
{"type":"Feature","properties":{"Id":0,"Count":1},"geometry":{"type":"Point","coordinates":[-0.134782290729799,51.513830854415822]}},
{"type":"Feature","properties":{"Id":0,"Count":1},"geometry":{"type":"Point","coordinates":[-0.135010439104656,51.513915407960198]}},
{"type":"Feature","properties":{"Id":0,"Count":1},"geometry":{"type":"Point","coordinates":[-0.134923165092386,51.513596648289408]}},
{"type":"Feature","properties":{"Id":0,"Count":1},"geometry":{"type":"Point","coordinates":[-0.134884655890014,51.514032070482116]}},
{"type":"Feature","properties":{"Id":0,"Count":5},"geometry":{"type":"Point","coordinates":[-0.134212333806906,51.513891200845123]}},
{"type":"Feature","properties":{"Id":0,"Count":1},"geometry":{"type":"Point","coordinates":[-0.134135208967645,51.513757554899705]}},
{"type":"Feature","properties":{"Id":0,"Count":1},"geometry":{"type":"Point","coordinates":[-0.134364142311478,51.514064766256908]}},
{"type":"Feature","properties":{"Id":0,"Count":2},"geometry":{"type":"Point","coordinates":[-0.134446719769241,51.514146126897842]}},
{"type":"Feature","properties":{"Id":0,"Count":2},"geometry":{"type":"Point","coordinates":[-0.13447936578885,51.514200917865196]}},
{"type":"Feature","properties":{"Id":0,"Count":1},"geometry":{"type":"Point","coordinates":[-0.134657771885026,51.514229968701329]}},
{"type":"Feature","properties":{"Id":0,"Count":1},"geometry":{"type":"Point","coordinates":[-0.13436724340823,51.514318636846781]}},
{"type":"Feature","properties":{"Id":0,"Count":1},"geometry":{"type":"Point","coordinates":[-0.134178634377384,51.514377059944863]}},
{"type":"Feature","properties":{"Id":0,"Count":1},"geometry":{"type":"Point","coordinates":[-0.13415976148722,51.5143572259474]}},
{"type":"Feature","properties":{"Id":0,"Count":2},"geometry":{"type":"Point","coordinates":[-0.134068702044353,51.514382016179219]}},
{"type":"Feature","properties":{"Id":0,"Count":2},"geometry":{"type":"Point","coordinates":[-0.134085124616283,51.51440168486068]}},
{"type":"Feature","properties":{"Id":0,"Count":5},"geometry":{"type":"Point","coordinates":[-0.133821413071616,51.514521548730073]}},
{"type":"Feature","properties":{"Id":0,"Count":1},"geometry":{"type":"Point","coordinates":[-0.133922274077607,51.51449742004219]}},
{"type":"Feature","properties":{"Id":0,"Count":1},"geometry":{"type":"Point","coordinates":[-0.133849759892947,51.514472419819775]}},
{"type":"Feature","properties":{"Id":0,"Count":1},"geometry":{"type":"Point","coordinates":[-0.133725256379654,51.514504233426315]}},
{"type":"Feature","properties":{"Id":0,"Count":1},"geometry":{"type":"Point","coordinates":[-0.133745319871062,51.51454580186283]}},
{"type":"Feature","properties":{"Id":0,"Count":4},"geometry":{"type":"Point","coordinates":[-0.13367571712426,51.51456121260685]}},
{"type":"Feature","properties":{"Id":0,"Count":1},"geometry":{"type":"Point","coordinates":[-0.133563464723882,51.51459385271702]}},
{"type":"Feature","properties":{"Id":0,"Count":2},"geometry":{"type":"Point","coordinates":[-0.133466513008693,51.514581123702065]}},
{"type":"Feature","properties":{"Id":0,"Count":1},"geometry":{"type":"Point","coordinates":[-0.133392869832624,51.514605541935261]}},
{"type":"Feature","properties":{"Id":0,"Count":1},"geometry":{"type":"Point","coordinates":[-0.134474118492023,51.515834485705433]}},
{"type":"Feature","properties":{"Id":0,"Count":1},"geometry":{"type":"Point","coordinates":[-0.135258984205708,51.515194770290876]}},
{"type":"Feature","properties":{"Id":0,"Count":1},"geometry":{"type":"Point","coordinates":[-0.135395298146342,51.515148903603937]}},
{"type":"Feature","properties":{"Id":0,"Count":1},"geometry":{"type":"Point","coordinates":[-0.136022211489905,51.514818269765428]}},
{"type":"Feature","properties":{"Id":0,"Count":3},"geometry":{"type":"Point","coordinates":[-0.136804075674203,51.514843477585693]}},
{"type":"Feature","properties":{"Id":0,"Count":1},"geometry":{"type":"Point","coordinates":[-0.136583319096456,51.514913684314521]}},
{"type":"Feature","properties":{"Id":0,"Count":1},"geometry":{"type":"Point","coordinates":[-0.135652932407312,51.514495519560747]}},
{"type":"Feature","properties":{"Id":0,"Count":2},"geometry":{"type":"Point","coordinates":[-0.135577913854983,51.514743246802645]}},
{"type":"Feature","properties":{"Id":0,"Count":1},"geometry":{"type":"Point","coordinates":[-0.134859609413001,51.514467027846365]}},
{"type":"Feature","properties":{"Id":0,"Count":1},"geometry":{"type":"Point","coordinates":[-0.134689543246651,51.514453051045137]}},
{"type":"Feature","properties":{"Id":0,"Count":1},"geometry":{"type":"Point","coordinates":[-0.134818231086368,51.514844669781994]}},
{"type":"Feature","properties":{"Id":0,"Count":1},"geometry":{"type":"Point","coordinates":[-0.135703514844387,51.514388806376587]}},
{"type":"Feature","properties":{"Id":0,"Count":1},"geometry":{"type":"Point","coordinates":[-0.135561310293036,51.51439923604908]}},
{"type":"Feature","properties":{"Id":0,"Count":2},"geometry":{"type":"Point","coordinates":[-0.135648648672323,51.514335048089571]}},
{"type":"Feature","properties":{"Id":0,"Count":1},"geometry":{"type":"Point","coordinates":[-0.135415144798746,51.514224187308727]}},
{"type":"Feature","properties":{"Id":0,"Count":1},"geometry":{"type":"Point","coordinates":[-0.135576316345701,51.514220043061172]}},
{"type":"Feature","properties":{"Id":0,"Count":2},"geometry":{"type":"Point","coordinates":[-0.13535663624528,51.51414515463042]}},
{"type":"Feature","properties":{"Id":0,"Count":3},"geometry":{"type":"Point","coordinates":[-0.135475372149745,51.514108113482436]}},
{"type":"Feature","properties":{"Id":0,"Count":2},"geometry":{"type":"Point","coordinates":[-0.136226072112923,51.51435898528112]}},
{"type":"Feature","properties":{"Id":0,"Count":1},"geometry":{"type":"Point","coordinates":[-0.136328090679183,51.514325821291024]}},
{"type":"Feature","properties":{"Id":0,"Count":1},"geometry":{"type":"Point","coordinates":[-0.136222106243106,51.514543928709507]}},
{"type":"Feature","properties":{"Id":0,"Count":1},"geometry":{"type":"Point","coordinates":[-0.136117408087633,51.51456940331537]}},
{"type":"Feature","properties":{"Id":0,"Count":1},"geometry":{"type":"Point","coordinates":[-0.136030284607007,51.514586051954353]}},
{"type":"Feature","properties":{"Id":0,"Count":1},"geometry":{"type":"Point","coordinates":[-0.136266471337188,51.514611995461138]}},
{"type":"Feature","properties":{"Id":0,"Count":2},"geometry":{"type":"Point","coordinates":[-0.136421321738711,51.514574886556588]}},
{"type":"Feature","properties":{"Id":0,"Count":3},"geometry":{"type":"Point","coordinates":[-0.136934523829401,51.514506885686231]}},
{"type":"Feature","properties":{"Id":0,"Count":3},"geometry":{"type":"Point","coordinates":[-0.136930770549059,51.514273867518924]}},
{"type":"Feature","properties":{"Id":0,"Count":1},"geometry":{"type":"Point","coordinates":[-0.13679917559375,51.514292522852479]}},
{"type":"Feature","properties":{"Id":0,"Count":1},"geometry":{"type":"Point","coordinates":[-0.136779562978219,51.51405843495337]}},
{"type":"Feature","properties":{"Id":0,"Count":3},"geometry":{"type":"Point","coordinates":[-0.136695870341535,51.514147898118011]}},
{"type":"Feature","properties":{"Id":0,"Count":1},"geometry":{"type":"Point","coordinates":[-0.136712157619842,51.513961282976709]}},
{"type":"Feature","properties":{"Id":0,"Count":1},"geometry":{"type":"Point","coordinates":[-0.136123198402845,51.514026675302496]}},
{"type":"Feature","properties":{"Id":0,"Count":1},"geometry":{"type":"Point","coordinates":[-0.135958276420819,51.514075618614356]}},
{"type":"Feature","properties":{"Id":0,"Count":1},"geometry":{"type":"Point","coordinates":[-0.135882620118941,51.514095543515424]}},
{"type":"Feature","properties":{"Id":0,"Count":2},"geometry":{"type":"Point","coordinates":[-0.135787674402965,51.51413418993581]}},
{"type":"Feature","properties":{"Id":0,"Count":2},"geometry":{"type":"Point","coordinates":[-0.13584936711686,51.514033229154037]}},
{"type":"Feature","properties":{"Id":0,"Count":4},"geometry":{"type":"Point","coordinates":[-0.136008180728894,51.513996388200354]}},
{"type":"Feature","properties":{"Id":0,"Count":5},"geometry":{"type":"Point","coordinates":[-0.136098732339704,51.51395994805268]}},
{"type":"Feature","properties":{"Id":0,"Count":2},"geometry":{"type":"Point","coordinates":[-0.136169566043722,51.51394470340832]}},
{"type":"Feature","properties":{"Id":0,"Count":5},"geometry":{"type":"Point","coordinates":[-0.135485022374042,51.513820936582093]}},
{"type":"Feature","properties":{"Id":0,"Count":5},"geometry":{"type":"Point","coordinates":[-0.13537399973136,51.513998657767381]}},
{"type":"Feature","properties":{"Id":0,"Count":3},"geometry":{"type":"Point","coordinates":[-0.135581789145553,51.513794927529041]}},
{"type":"Feature","properties":{"Id":0,"Count":3},"geometry":{"type":"Point","coordinates":[-0.135678984493575,51.513766444458604]}},
{"type":"Feature","properties":{"Id":0,"Count":1},"geometry":{"type":"Point","coordinates":[-0.135814436267271,51.51372552494766]}},
{"type":"Feature","properties":{"Id":0,"Count":5},"geometry":{"type":"Point","coordinates":[-0.135904558786079,51.513691558868061]}},
{"type":"Feature","properties":{"Id":0,"Count":4},"geometry":{"type":"Point","coordinates":[-0.135992109203424,51.513672436318451]}},
{"type":"Feature","properties":{"Id":0,"Count":4},"geometry":{"type":"Point","coordinates":[-0.13621682526215,51.513602497951176]}},
{"type":"Feature","properties":{"Id":0,"Count":1},"geometry":{"type":"Point","coordinates":[-0.136578705632134,51.513481742913797]}},
{"type":"Feature","properties":{"Id":0,"Count":4},"geometry":{"type":"Point","coordinates":[-0.136675042507504,51.513458206833597]}},
{"type":"Feature","properties":{"Id":0,"Count":1},"geometry":{"type":"Point","coordinates":[-0.136764306667529,51.513429187916451]}},
{"type":"Feature","properties":{"Id":0,"Count":3},"geometry":{"type":"Point","coordinates":[-0.136876931664,51.513404247470625]}},
{"type":"Feature","properties":{"Id":0,"Count":2},"geometry":{"type":"Point","coordinates":[-0.136952907535883,51.513359315024651]}},
{"type":"Feature","properties":{"Id":0,"Count":1},"geometry":{"type":"Point","coordinates":[-0.137230452303064,51.513378034872311]}},
{"type":"Feature","properties":{"Id":0,"Count":2},"geometry":{"type":"Point","coordinates":[-0.136650505464377,51.513854504873976]}},
{"type":"Feature","properties":{"Id":0,"Count":1},"geometry":{"type":"Point","coordinates":[-0.136502623183165,51.513874564083125]}},
{"type":"Feature","properties":{"Id":0,"Count":1},"geometry":{"type":"Point","coordinates":[-0.137366549858923,51.513564916392575]}},
{"type":"Feature","properties":{"Id":0,"Count":2},"geometry":{"type":"Point","coordinates":[-0.137421845905315,51.51361619997423]}},
{"type":"Feature","properties":{"Id":0,"Count":3},"geometry":{"type":"Point","coordinates":[-0.137472214522456,51.513742236655922]}},
{"type":"Feature","properties":{"Id":0,"Count":1},"geometry":{"type":"Point","coordinates":[-0.138300074439709,51.513918207696356]}},
{"type":"Feature","properties":{"Id":0,"Count":1},"geometry":{"type":"Point","coordinates":[-0.137362623323104,51.513772390751235]}},
{"type":"Feature","properties":{"Id":0,"Count":4},"geometry":{"type":"Point","coordinates":[-0.137995077953299,51.513502189214201]}},
{"type":"Feature","properties":{"Id":0,"Count":2},"geometry":{"type":"Point","coordinates":[-0.138139217060626,51.513712137688827]}},
{"type":"Feature","properties":{"Id":0,"Count":2},"geometry":{"type":"Point","coordinates":[-0.138239302539498,51.51364380185845]}},
{"type":"Feature","properties":{"Id":0,"Count":1},"geometry":{"type":"Point","coordinates":[-0.138271775109572,51.513711065769591]}},
{"type":"Feature","properties":{"Id":0,"Count":5},"geometry":{"type":"Point","coordinates":[-0.138082756406952,51.514061231578481]}},
{"type":"Feature","properties":{"Id":0,"Count":3},"geometry":{"type":"Point","coordinates":[-0.137911641541603,51.51474798628449]}},
{"type":"Feature","properties":{"Id":0,"Count":2},"geometry":{"type":"Point","coordinates":[-0.137707067954352,51.514794257997998]}},
{"type":"Feature","properties":{"Id":0,"Count":3},"geometry":{"type":"Point","coordinates":[-0.137107699051381,51.514526074558027]}},
{"type":"Feature","properties":{"Id":0,"Count":2},"geometry":{"type":"Point","coordinates":[-0.137064514887427,51.514705869910344]}},
{"type":"Feature","properties":{"Id":0,"Count":1},"geometry":{"type":"Point","coordinates":[-0.138473500609749,51.512310910808431]}},
{"type":"Feature","properties":{"Id":0,"Count":1},"geometry":{"type":"Point","coordinates":[-0.138123117837499,51.511998453365074]}},
{"type":"Feature","properties":{"Id":0,"Count":1},"geometry":{"type":"Point","coordinates":[-0.137762106780764,51.511855712678816]}}
]
}
